STARLINK-5383
1 54827U 22177H   26086.92037252  .00098082  00000+0  45411-2 0  9990
2 54827  43.0017  32.9203 0001171 274.3723  85.6992 15.19063761179724
